NORAD_CAT_ID,OBJECT_NAME,OBJECT_TYPE,EPOCH,MEAN_MOTION,ECCENTRICITY,INCLINATION,RA_OF_ASC_NODE,ARG_OF_PERICENTER,MEAN_ANOMALY,BSTAR,MEAN_MOTION_DOT,MEAN_MOTION_DDOT,TLE_LINE0,TLE_LINE1,TLE_LINE2,SEMIMAJOR_AXIS,PERIOD,APOGEE,PERIGEE,DECAYED
56456.0,STARLINK-5995,PAYLOAD,2024-06-05 12:24:09,14.98324594,0.0002934,70.0013,323.6478,267.8647,92.2176,-3.6397e-05,-5.27e-06,0.0,0 STARLINK-5995,1 56456U 23064J   24157.51678158 -.00000527  00000-0 -36397-4 0  9999,2 56456  70.0013 323.6478 0002934 267.8647  92.2176 14.98324594 59415,6950.21,96.107,574.114,570.035,0.0
56456.0,STARLINK-5995,PAYLOAD,2024-06-05 22:00:57,14.98330471,0.0002894,70.0015,322.6376,267.7372,92.3456,2.4936e-05,2.05e-06,0.0,0 STARLINK-5995,1 56456U 23064J   24157.91733706  .00000205  00000-0  24936-4 0  9991,2 56456  70.0015 322.6376 0002894 267.7372  92.3456 14.98330471 59112,6950.191,96.107,574.068,570.045,0.0
56456.0,STARLINK-5995,PAYLOAD,2024-06-06 12:26:10,14.98326314,0.0003116,69.9993,321.1211,270.4724,89.6078,3.4055e-05,3.13e-06,0.0,0 STARLINK-5995,1 56456U 23064J   24158.51817990  .00000313  00000-0  34055-4 0  9999,2 56456  69.9993 321.1211 0003116 270.4724  89.6078 14.98326314 59565,6950.204,96.107,574.235,569.904,0.0
56456.0,STARLINK-5995,PAYLOAD,2024-06-06 17:14:34,14.98364041,0.0002705,69.9998,320.6163,259.1841,100.9014,-0.00057293,-6.928e-05,0.0,0 STARLINK-5995,1 56456U 23064J   24158.71844925 -.00006928  00000-0 -57293-3 0  9997,2 56456  69.9998 320.6163 0002705 259.1841 100.9014 14.98364041 59596,6950.088,96.105,573.833,570.073,0.0
56456.0,STARLINK-5995,PAYLOAD,2024-06-07 20:28:51,14.98337328,0.0003141,69.9987,317.7537,270.6539,89.426,0.0001647,1.873e-05,0.0,0 STARLINK-5995,1 56456U 23064J   24159.85337169  .00001873  00000-0  16470-3 0  9994,2 56456  69.9987 317.7537 0003141 270.6539  89.4260 14.98337328 59764,6950.17,96.107,574.218,569.852,0.0
56456.0,STARLINK-5995,PAYLOAD,2024-06-08 12:30:12,14.9833455,0.0003008,69.9995,316.0704,270.6934,89.388,0.00012258,1.37e-05,0.0,0 STARLINK-5995,1 56456U 23064J   24160.52097323  .00001370  00000-0  12258-3 0  9997,2 56456  69.9995 316.0704 0003008 270.6934  89.3880 14.98334550 59505,6950.179,96.107,574.134,569.953,0.0
56456.0,STARLINK-5995,PAYLOAD,2024-06-08 20:30:51,14.98342348,0.0002959,69.9993,315.2292,270.1835,89.8985,0.00018321,2.094e-05,0.0,0 STARLINK-5995,1 56456U 23064J   24160.85476565  .00002094  00000-0  18321-3 0  9993,2 56456  69.9993 315.2292 0002959 270.1835  89.8985 14.98342348 59915,6950.155,96.106,574.076,569.963,0.0
56456.0,STARLINK-5995,PAYLOAD,2024-06-09 12:32:13,14.98346296,0.0002792,69.9982,313.5439,276.7744,83.3098,-0.00028064,-3.441e-05,0.0,0 STARLINK-5995,1 56456U 23064J   24161.52237452 -.00003441  00000-0 -28064-3 0  9992,2 56456  69.9982 313.5439 0002792 276.7744  83.3098 14.98346296 60016,6950.142,96.106,573.948,570.067,0.0
56456.0,STARLINK-5995,PAYLOAD,2024-06-09 20:32:53,14.98328151,0.0002849,69.9985,312.7031,273.2984,86.7849,-5.0165e-05,-6.91e-06,0.0,0 STARLINK-5995,1 56456U 23064J   24161.85617976 -.00000691  00000-0 -50165-4 0  9993,2 56456  69.9985 312.7031 0002849 273.2984  86.7849 14.98328151 60065,6950.199,96.107,574.044,570.083,0.0
56456.0,STARLINK-5995,PAYLOAD,2024-06-10 12:34:14,14.98332397,0.0003026,69.9988,311.0195,271.1973,88.884,-5.2389e-06,-1.56e-06,0.0,0 STARLINK-5995,1 56456U 23064J   24162.52377551 -.00000156  00000-0 -52389-5 0  9997,2 56456  69.9988 311.0195 0003026 271.1973  88.8840 14.98332397 59805,6950.185,96.107,574.154,569.947,0.0
56456.0,STARLINK-5995,PAYLOAD,2024-06-10 18:58:45,14.98338197,0.0002919,69.9998,310.348,265.7688,94.3137,7.0425e-05,7.48e-06,0.0,0 STARLINK-5995,1 56456U 23064J   24162.79080960  .00000748  00000-0  70425-4 0  9996,2 56456  69.9998 310.3480 0002919 265.7688  94.3137 14.98338197 60208,6950.168,96.106,574.061,570.004,0.0
56456.0,STARLINK-5995,PAYLOAD,2024-06-11 14:12:23,14.98325238,0.0002902,70.0002,308.3285,267.3437,92.739,0.0001102,1.222e-05,0.0,0 STARLINK-5995,1 56456U 23064J   24163.59193764  .00001222  00000-0  11020-3 0  9995,2 56456  70.0002 308.3285 0002902 267.3437  92.7390 14.98325238 59965,6950.208,96.107,574.09,570.056,0.0
56456.0,STARLINK-5995,PAYLOAD,2024-06-11 19:00:47,14.98329916,0.000285,70.0002,307.8236,267.069,93.0142,0.00015975,1.814e-05,0.0,0 STARLINK-5995,1 56456U 23064J   24163.79221409  .00001814  00000-0  15975-3 0  9995,2 56456  70.0002 307.8236 0002850 267.0690  93.0142 14.98329916 60356,6950.193,96.107,574.039,570.077,0.0
56456.0,STARLINK-5995,PAYLOAD,2024-06-12 12:38:16,14.98327824,0.0002736,70.0005,305.9725,266.4901,93.5945,-1.8394e-05,-3.12e-06,0.0,0 STARLINK-5995,1 56456U 23064J   24164.52657981 -.00000312  00000-0 -18394-4 0  9998,2 56456  70.0005 305.9725 0002736 266.4901  93.5945 14.98327824 60466,6950.2,96.107,573.966,570.163,0.0
56456.0,STARLINK-5995,PAYLOAD,2024-06-12 19:02:48,14.98326388,0.0002751,70.0005,305.2993,268.2691,91.8153,-1.9644e-05,-3.27e-06,0.0,0 STARLINK-5995,1 56456U 23064J   24164.79362111 -.00000327  00000-0 -19644-4 0  9990,2 56456  70.0005 305.2993 0002751 268.2691  91.8153 14.98326388 60140,6950.204,96.107,573.981,570.157,0.0
56456.0,STARLINK-5995,PAYLOAD,2024-06-13 12:40:13,14.98376317,0.0002614,70.0003,303.4463,255.083,105.004,0.00057918,6.833e-05,0.0,0 STARLINK-5995,1 56456U 23064J   24165.52793223  .00006833  00000-0  57918-3 0  9995,2 56456  70.0003 303.4463 0002614 255.0830 105.0040 14.98376317 60619,6950.05,96.104,573.731,570.098,0.0
56456.0,STARLINK-5995,PAYLOAD,2024-06-13 14:16:21,14.98377571,0.0002713,70.0005,303.2783,260.7033,99.3819,0.00057919,6.833e-05,0.0,0 STARLINK-5995,1 56456U 23064J   24165.59469001  .00006833  00000-0  57919-3 0  9997,2 56456  70.0005 303.2783 0002713 260.7033  99.3819 14.98377571 60265,6950.046,96.104,573.796,570.025,0.0
56456.0,STARLINK-5995,PAYLOAD,2024-06-13 19:04:49,14.98326666,0.0003032,69.9999,302.7728,270.3971,89.684,-2.4218e-05,-3.82e-06,0.0,0 STARLINK-5995,1 56456U 23064J   24165.79501419 -.00000382  00000-0 -24218-4 0  9991,2 56456  69.9999 302.7728 0003032 270.3971  89.6840 14.98326666 60298,6950.203,96.107,574.176,569.961,0.0
56456.0,STARLINK-5995,PAYLOAD,2024-06-14 14:18:26,14.98320394,0.0003037,70.0001,300.753,271.1922,88.8889,-2.2146e-05,-3.57e-06,0.0,0 STARLINK-5995,1 56456U 23064J   24166.59614190 -.00000357  00000-0 -22146-4 0  9991,2 56456  70.0001 300.7530 0003037 271.1922  88.8889 14.98320394 60414,6950.223,96.108,574.198,569.977,0.0
56456.0,STARLINK-5995,PAYLOAD,2024-06-14 19:06:50,14.9832513,0.000298,70.0002,300.248,270.8179,89.2639,3.151e-05,2.83e-06,0.0,0 STARLINK-5995,1 56456U 23064J   24166.79641830  .00000283  00000-0  31510-4 0  9995,2 56456  70.0002 300.2480 0002980 270.8179  89.2639 14.98325130 60444,6950.208,96.107,574.144,570.002,0.0
56456.0,STARLINK-5995,PAYLOAD,2024-06-15 14:20:26,14.98339843,0.000304,70.0001,298.2282,271.6626,88.4185,-1.0063e-05,-2.13e-06,0.0,0 STARLINK-5995,1 56456U 23064J   24167.59752913 -.00000213  00000-0 -10063-4 0  9994,2 56456  70.0001 298.2282 0003040 271.6626  88.4185 14.98339843 60569,6950.162,96.106,574.14,569.915,0.0
56456.0,STARLINK-5995,PAYLOAD,2024-06-15 19:08:49,14.98361589,0.0002602,70.0001,297.7232,262.8617,97.2246,-0.00026024,-3.199e-05,0.0,0 STARLINK-5995,1 56456U 23064J   24167.79779685 -.00003199  00000-0 -26024-3 0  9990,2 56456  70.0001 297.7232 0002602 262.8617  97.2246 14.98361589 60594,6950.095,96.105,573.769,570.152,0.0
56456.0,STARLINK-5995,PAYLOAD,2024-06-16 14:22:27,14.98328276,0.0002953,70.0003,295.7038,270.6625,89.4196,0.00018043,2.06e-05,0.0,0 STARLINK-5995,1 56456U 23064J   24168.59893138  .00002060  00000-0  18043-3 0  9995,2 56456  70.0003 295.7038 0002953 270.6625  89.4196 14.98328276 60710,6950.198,96.107,574.116,570.011,0.0
56456.0,STARLINK-5995,PAYLOAD,2024-06-16 17:34:43,14.98329751,0.0002776,70.0006,295.3673,265.4556,94.6286,0.00018894,2.162e-05,0.0,0 STARLINK-5995,1 56456U 23064J   24168.73245007  .00002162  00000-0  18894-3 0  9994,2 56456  70.0006 295.3673 0002776 265.4556  94.6286 14.98329751 60731,6950.194,96.107,573.988,570.129,0.0
56456.0,STARLINK-5995,PAYLOAD,2024-06-17 19:12:53,14.9832713,0.0002822,70.0003,292.6743,267.5687,92.5149,-5.7633e-05,-7.8e-06,0.0,0 STARLINK-5995,1 56456U 23064J   24169.80061716 -.00000780  00000-0 -57633-4 0  9997,2 56456  70.0003 292.6743 0002822 267.5687  92.5149 14.98327130 61258,6950.202,96.107,574.028,570.105,0.0
56456.0,STARLINK-5995,PAYLOAD,2024-06-18 14:26:29,14.98334512,0.0003087,69.9997,290.6534,270.5523,89.5282,0.00010931,1.212e-05,0.0,0 STARLINK-5995,1 56456U 23064J   24170.60172890  .00001212  00000-0  10931-3 0  9991,2 56456  69.9997 290.6534 0003087 270.5523  89.5282 14.98334512 61010,6950.179,96.107,574.189,569.898,0.0
56456.0,STARLINK-5995,PAYLOAD,2024-06-18 17:38:45,14.98335131,0.0003118,69.9998,290.3167,269.9085,90.1716,0.00010846,1.202e-05,0.0,0 STARLINK-5995,1 56456U 23064J   24170.73524868  .00001202  00000-0  10846-3 0  9995,2 56456  69.9998 290.3167 0003118 269.9085  90.1716 14.98335131 61399,6950.177,96.107,574.209,569.875,0.0
56456.0,STARLINK-5995,PAYLOAD,2024-06-19 12:52:23,14.98317622,0.0003119,69.9992,288.2954,268.8616,91.2186,0.00027652,3.207e-05,0.0,0 STARLINK-5995,1 56456U 23064J   24171.53637873  .00003207  00000-0  27652-3 0  9995,2 56456  69.9992 288.2954 0003119 268.8616  91.2186 14.98317622 61514,6950.231,96.108,574.264,569.928,0.0
56456.0,STARLINK-5995,PAYLOAD,2024-06-19 14:28:30,14.98327514,0.0003154,69.9996,288.1287,270.9596,89.1202,0.00012703,1.423e-05,0.0,0 STARLINK-5995,1 56456U 23064J   24171.60313452  .00001423  00000-0  12703-3 0  9996,2 56456  69.9996 288.1287 0003154 270.9596  89.1202 14.98327514 61163,6950.201,96.107,574.258,569.873,0.0
56456.0,STARLINK-5995,PAYLOAD,2024-06-19 17:40:46,14.98329316,0.0003131,69.9997,287.792,270.7965,89.2835,0.00014199,1.602e-05,0.0,0 STARLINK-5995,1 56456U 23064J   24171.73665299  .00001602  00000-0  14199-3 0  9999,2 56456  69.9997 287.7920 0003131 270.7965  89.2835 14.98329316 61543,6950.195,96.107,574.236,569.884,0.0
